NORAD_CAT_ID,OBJECT_NAME,OBJECT_TYPE,EPOCH,MEAN_MOTION,ECCENTRICITY,INCLINATION,RA_OF_ASC_NODE,ARG_OF_PERICENTER,MEAN_ANOMALY,BSTAR,MEAN_MOTION_DOT,MEAN_MOTION_DDOT,TLE_LINE0,TLE_LINE1,TLE_LINE2,SEMIMAJOR_AXIS,PERIOD,APOGEE,PERIGEE,DECAYED
53534.0,STARLINK-4488,PAYLOAD,2023-07-28 14:31:18,15.08836322,0.0001612,53.2155,41.6636,83.0368,277.0807,4.979e-05,5.04e-06,0.0,0 STARLINK-4488,1 53534U 22101H   23209.60507925  .00000504  00000-0  49790-4 0  9998,2 53534  53.2155  41.6636 0001612  83.0368 277.0807 15.08836322 51989,6917.892,95.438,540.872,538.641,0.0
53534.0,STARLINK-4488,PAYLOAD,2023-07-29 08:00:32,15.08844189,0.000122,53.2165,38.3926,83.5435,276.5696,0.00012508,1.704e-05,0.0,0 STARLINK-4488,1 53534U 22101H   23210.33371019  .00001704  00000-0  12508-3 0  9992,2 53534  53.2165  38.3926 0001220  83.5435 276.5696 15.08844189 52093,6917.868,95.437,540.577,538.889,0.0
53534.0,STARLINK-4488,PAYLOAD,2023-07-30 07:51:19,15.08842525,9.03e-05,53.2181,33.933,101.7796,258.3298,2.1002e-05,4.7e-07,0.0,0 STARLINK-4488,1 53534U 22101H   23211.32731466  .00000047  00000-0  21002-4 0  9997,2 53534  53.2181  33.9330 0000903 101.7796 258.3298 15.08842525 52246,6917.873,95.437,540.362,539.113,0.0
53534.0,STARLINK-4488,PAYLOAD,2023-07-31 17:14:26,15.08834386,9.56e-05,53.2178,27.6879,92.3926,267.7176,4.2375e-06,-2.2e-06,0.0,0 STARLINK-4488,1 53534U 22101H   23212.71836172 -.00000220  00000-0  42375-5 0  9992,2 53534  53.2178  27.6879 0000956  92.3926 267.7176 15.08834386 52456,6917.898,95.438,540.424,539.101,0.0
53534.0,STARLINK-4488,PAYLOAD,2023-08-01 18:40:36,15.08837191,9.03e-05,53.218,22.9304,87.9778,272.1318,0.000107,1.415e-05,0.0,0 STARLINK-4488,1 53534U 22101H   23213.77820079  .00001415  00000-0  10700-3 0  9999,2 53534  53.2180  22.9304 0000903  87.9778 272.1318 15.08837191 52610,6917.889,95.438,540.379,539.129,0.0
53534.0,STARLINK-4488,PAYLOAD,2023-08-02 20:06:45,15.08852713,9.5e-05,53.218,18.1722,85.8292,274.2809,0.00022224,3.252e-05,0.0,0 STARLINK-4488,1 53534U 22101H   23214.83803080  .00003252  00000-0  22224-3 0  9995,2 53534  53.2180  18.1722 0000950  85.8292 274.2809 15.08852713 52773,6917.842,95.437,540.364,539.049,0.0
53534.0,STARLINK-4488,PAYLOAD,2023-08-03 10:25:14,15.0884189,0.0001078,53.2193,15.4959,101.299,258.8123,0.000122,1.654e-05,0.0,0 STARLINK-4488,1 53534U 22101H   23215.43420029  .00001654  00000-0  12200-3 0  9997,2 53534  53.2193  15.4959 0001078 101.2990 258.8123 15.08841890 52860,6917.875,95.437,540.485,538.994,0.0
53534.0,STARLINK-4488,PAYLOAD,2023-08-04 10:16:02,15.08835571,0.0001027,53.2174,11.0351,70.8654,289.245,-2.0858e-05,-6.2e-06,0.0,0 STARLINK-4488,1 53534U 22101H   23216.42780395 -.00000620  00000-0 -20858-4 0  9995,2 53534  53.2174  11.0351 0001027  70.8654 289.2450 15.08835571 53017,6917.894,95.438,540.469,539.048,0.0
53534.0,STARLINK-4488,PAYLOAD,2023-08-05 16:28:21,15.08855481,0.0001048,53.2179,5.3843,74.101,286.0097,0.00028907,4.318e-05,0.0,0 STARLINK-4488,1 53534U 22101H   23217.68635481  .00004318  00000-0  28907-3 0  9997,2 53534  53.2179   5.3843 0001048  74.1010 286.0097 15.08855481 53205,6917.833,95.437,540.423,538.973,0.0
53534.0,STARLINK-4488,PAYLOAD,2023-08-06 09:57:36,15.08830944,0.0001125,53.2183,2.1131,92.7886,267.3235,-3.0851e-05,-7.79e-06,0.0,0 STARLINK-4488,1 53534U 22101H   23218.41500972 -.00000779  00000-0 -30851-4 0  9996,2 53534  53.2183   2.1131 0001125  92.7886 267.3235 15.08830944 53313,6917.908,95.438,540.551,538.995,0.0
53534.0,STARLINK-4488,PAYLOAD,2023-08-06 16:19:10,15.08820013,9.67e-05,53.2183,0.9234,87.8623,272.248,-0.00018054,-3.158e-05,0.0,0 STARLINK-4488,1 53534U 22101H   23218.67997751 -.00003158  00000-0 -18054-3 0  9993,2 53534  53.2183   0.9234 0000967  87.8623 272.2480 15.08820013 53357,6917.941,95.439,540.475,539.138,0.0
53534.0,STARLINK-4488,PAYLOAD,2023-08-07 09:48:24,15.08833766,8.85e-05,53.2186,357.6519,93.3451,266.7642,-0.00012468,-2.271e-05,0.0,0 STARLINK-4488,1 53534U 22101H   23219.40861688 -.00002271  00000-0 -12468-3 0  9992,2 53534  53.2186 357.6519 0000885  93.3451 266.7642 15.08833766 53467,6917.899,95.438,540.377,539.152,0.0
53534.0,STARLINK-4488,PAYLOAD,2023-08-07 16:09:56,15.08843089,9.13e-05,53.2175,356.4653,87.4173,272.6924,0.00012774,1.746e-05,0.0,0 STARLINK-4488,1 53534U 22101H   23219.67357443  .00001746  00000-0  12774-3 0  9994,2 53534  53.2175 356.4653 0000913  87.4173 272.6924 15.08843089 53501,6917.871,95.437,540.368,539.104,0.0
53534.0,STARLINK-4488,PAYLOAD,2023-08-08 16:00:43,15.088764,8.26e-05,53.2173,352.0052,89.9937,270.115,0.0009964,0.00015621,0.0,0 STARLINK-4488,1 53534U 22101H   23220.66716693  .00015621  00000-0  99640-3 0  9995,2 53534  53.2173 352.0052 0000826  89.9937 270.1150 15.08876400 53655,6917.769,95.435,540.206,539.063,0.0
53534.0,STARLINK-4488,PAYLOAD,2023-08-09 01:33:01,15.08878814,4.09e-05,53.2173,350.2209,62.2529,297.8505,0.00083739,0.00013078,0.0,0 STARLINK-4488,1 53534U 22101H   23221.06459931  .00013078  00000-0  83739-3 0  9995,2 53534  53.2173 350.2209 0000409  62.2529 297.8505 15.08878814 53715,6917.762,95.435,539.91,539.344,0.0
53534.0,STARLINK-4488,PAYLOAD,2023-08-09 09:29:57,15.08838893,8.07e-05,53.2169,348.7343,79.4493,280.659,-0.00054573,-8.962e-05,0.0,0 STARLINK-4488,1 53534U 22101H   23221.39580450 -.00008962  00000-0 -54573-3 0  9994,2 53534  53.2169 348.7343 0000807  79.4493 280.6590 15.08838893 53765,6917.884,95.438,540.307,539.19,0.0
53534.0,STARLINK-4488,PAYLOAD,2023-08-09 15:51:30,15.08843713,7.79e-05,53.2168,347.5449,74.0182,286.0896,8.7876e-05,1.111e-05,0.0,0 STARLINK-4488,1 53534U 22101H   23221.66076460  .00001111  00000-0  87876-4 0  9995,2 53534  53.2168 347.5449 0000779  74.0182 286.0896 15.08843713 53803,6917.869,95.437,540.273,539.195,0.0
53534.0,STARLINK-4488,PAYLOAD,2023-08-10 02:59:12,15.08836423,9.36e-05,53.2167,345.4631,67.6401,292.469,0.00063025,9.756e-05,0.0,0 STARLINK-4488,1 53534U 22101H   23222.12445016  .00009756  00000-0  63025-3 0  9996,2 53534  53.2167 345.4631 0000936  67.6401 292.4690 15.08836423 53879,6917.891,95.438,540.404,539.109,0.0
53534.0,STARLINK-4488,PAYLOAD,2023-08-11 07:36:08,15.08843006,8.64e-05,53.216,340.11,67.1883,292.92,0.00018763,2.7e-05,0.0,0 STARLINK-4488,1 53534U 22101H   23223.31677003  .00002700  00000-0  18763-3 0  9992,2 53534  53.2160 340.1100 0000864  67.1883 292.9200 15.08843006 54052,6917.871,95.437,540.334,539.138,0.0
53534.0,STARLINK-4488,PAYLOAD,2023-08-12 13:48:28,15.08848392,8.88e-05,53.2166,334.46,78.1198,281.9893,0.00022515,3.298e-05,0.0,0 STARLINK-4488,1 53534U 22101H   23224.57532559  .00003298  00000-0  22515-3 0  9990,2 53534  53.2166 334.4600 0000888  78.1198 281.9893 15.08848392 54246,6917.855,95.437,540.334,539.105,0.0
53534.0,STARLINK-4488,PAYLOAD,2023-08-13 00:56:10,15.08845011,8.32e-05,53.2166,332.3792,72.4783,287.63,0.00016265,2.302e-05,0.0,0 STARLINK-4488,1 53534U 22101H   23225.03900616  .00002302  00000-0  16265-3 0  9995,2 53534  53.2166 332.3792 0000832  72.4783 287.6300 15.08845011 54310,6917.865,95.437,540.306,539.155,0.0
53534.0,STARLINK-4488,PAYLOAD,2023-08-13 13:39:15,15.0883671,0.0001062,53.2165,329.9992,90.9095,269.2018,1.8453e-05,6e-08,0.0,0 STARLINK-4488,1 53534U 22101H   23225.56893077  .00000006  00000-0  18453-4 0  9996,2 53534  53.2165 329.9992 0001062  90.9095 269.2018 15.08836710 54396,6917.89,95.438,540.49,539.021,0.0
53534.0,STARLINK-4488,PAYLOAD,2023-08-13 21:36:10,15.08845774,9.44e-05,53.2169,328.5129,82.5197,277.5902,9.9028e-05,1.289e-05,0.0,0 STARLINK-4488,1 53534U 22101H   23225.90012715  .00001289  00000-0  99028-4 0  9997,2 53534  53.2169 328.5129 0000944  82.5197 277.5902 15.08845774 54445,6917.863,95.437,540.381,539.075,0.0
53534.0,STARLINK-4488,PAYLOAD,2023-08-14 10:19:16,15.08836132,0.000104,53.217,326.1334,100.9132,259.1977,4.1865e-05,3.79e-06,0.0,0 STARLINK-4488,1 53534U 22101H   23226.43005284  .00000379  00000-0  41865-4 0  9994,2 53534  53.2170 326.1334 0001040 100.9132 259.1977 15.08836132 54526,6917.892,95.438,540.477,539.038,0.0
53534.0,STARLINK-4488,PAYLOAD,2023-08-15 10:10:01,15.08885124,0.0001443,53.2173,321.6737,67.2414,292.873,-0.0011919,-0.0001923,0.0,0 STARLINK-4488,1 53534U 22101H   23227.42362303 -.00019230  00000-0 -11919-2 0  9995,2 53534  53.2173 321.6737 0001443  67.2414 292.8730 15.08885124 54673,6917.742,95.435,540.606,538.609,0.0
53534.0,STARLINK-4488,PAYLOAD,2023-08-15 22:53:08,15.08848385,0.0001084,53.2178,319.2947,69.1331,290.9777,0.00016291,2.306e-05,0.0,0 STARLINK-4488,1 53534U 22101H   23227.95356752  .00002306  00000-0  16291-3 0  9997,2 53534  53.2178 319.2947 0001084  69.1331 290.9777 15.08848385 54751,6917.855,95.437,540.47,538.97,0.0
53534.0,STARLINK-4488,PAYLOAD,2023-08-16 10:00:50,15.08834833,0.0001114,53.2173,317.2139,73.9905,286.121,-3.8643e-05,-9.03e-06,0.0,0 STARLINK-4488,1 53534U 22101H   23228.41725496 -.00000903  00000-0 -38643-4 0  9993,2 53534  53.2173 317.2139 0001114  73.9905 286.1210 15.08834833 54821,6917.896,95.438,540.532,538.991,0.0
53534.0,STARLINK-4488,PAYLOAD,2023-08-16 16:22:22,15.08844141,0.0001119,53.2168,316.0255,83.6842,276.4277,9.7339e-05,1.262e-05,0.0,0 STARLINK-4488,1 53534U 22101H   23228.68221049  .00001262  00000-0  97339-4 0  9991,2 53534  53.2168 316.0255 0001119  83.6842 276.4277 15.08844141 54866,6917.868,95.437,540.507,538.959,0.0
53534.0,STARLINK-4488,PAYLOAD,2023-08-16 22:43:55,15.08836616,0.0001019,53.217,314.8354,89.2147,270.8962,1.255e-05,-8.8e-07,0.0,0 STARLINK-4488,1 53534U 22101H   23228.94717441 -.00000088  00000-0  12550-4 0  9994,2 53534  53.2170 314.8354 0001019  89.2147 270.8962 15.08836616 54906,6917.891,95.438,540.461,539.051,0.0
53534.0,STARLINK-4488,PAYLOAD,2023-08-17 09:51:37,15.08846024,9.8e-05,53.2172,312.753,94.9492,265.1612,-1.9955e-05,-6.05e-06,0.0,0 STARLINK-4488,1 53534U 22101H   23229.41084966 -.00000605  00000-0 -19955-4 0  9998,2 53534  53.2172 312.7530 0000980  94.9492 265.1612 15.08846024 54973,6917.862,95.437,540.405,539.049,0.0
